start=new Date('2022-07-11T00:00:00.000Z').valueOf();
sats=[{"TIME_SYSTEM":"UTC","INCLINATION":"53.2174","COUNTRY_CODE":"US","TLE_LINE2":"2 50182  53.2174 134.7870 0002790  45.6646 314.4574 15.08821580 34158","REV_AT_EPOCH":"3415","FILE":"3511300","LAUNCH_DATE":"2021-12-18","RCS_SIZE":"LARGE","OBJECT_TYPE":"PAYLOAD","OBJECT_ID":"2021-125AC","ELEMENT_SET_NO":"999","CENTER_NAME":"EARTH","PERIOD":"95.439","SEMIMAJOR_AXIS":"6917.937","REF_FRAME":"TEME","MEAN_MOTION":"15.08821580","RA_OF_ASC_NODE":"134.7870","GP_ID":"207852149","OBJECT_NAME":"STARLINK-3277","MEAN_ELEMENT_THEORY":"SGP4","MEAN_ANOMALY":"314.4574","ECCENTRICITY":"0.00027900","PERIAPSIS":"537.872","MEAN_MOTION_DOT":"-0.00001888","APOAPSIS":"541.732","EPOCH":"2022-07-10T21:03:58.793184","ARG_OF_PERICENTER":"45.6646","EPHEMERIS_TYPE":"0","CLASSIFICATION_TYPE":"U","BSTAR":"-0.00010059000000","SITE":"AFWTR","MEAN_MOTION_DDOT":"0.0000000000000","NORAD_CAT_ID":"50182","TLE_LINE1":"1 50182U 21125AC  22191.87776381 -.00001888  00000-0 -10059-3 0  9994","DECAY_DATE":null},{"TLE_LINE2":"2 50183  53.2195 136.2723 0003977  53.3795 306.7563 15.08848705 34638","FILE":"3511318","REV_AT_EPOCH":"3463","INCLINATION":"53.2195","COUNTRY_CODE":"US","TIME_SYSTEM":"UTC","PERIOD":"95.437","SEMIMAJOR_AXIS":"6917.854","CENTER_NAME":"EARTH","ELEMENT_SET_NO":"999","REF_FRAME":"TEME","LAUNCH_DATE":"2021-12-18","RCS_SIZE":"LARGE","OBJECT_ID":"2021-125AD","OBJECT_TYPE":"PAYLOAD","RA_OF_ASC_NODE":"136.2723","MEAN_MOTION":"15.08848705","MEAN_ELEMENT_THEORY":"SGP4","MEAN_ANOMALY":"306.7563","GP_ID":"207875556","OBJECT_NAME":"STARLINK-3281","ECCENTRICITY":"0.00039770","PERIAPSIS":"536.968","APOAPSIS":"542.470","MEAN_MOTION_DOT":"0.00000785","EPHEMERIS_TYPE":"0","ARG_OF_PERICENTER":"53.3795","BSTAR":"0.00006746700000","CLASSIFICATION_TYPE":"U","EPOCH":"2022-07-10T13:12:19.404576","TLE_LINE1":"1 50183U 21125AD  22191.55022459  .00000785  00000-0  67467-4 0  9999","NORAD_CAT_ID":"50183","DECAY_DATE":null,"MEAN_MOTION_DDOT":"0.0000000000000","SITE":"AFWTR"},{"RA_OF_ASC_NODE":"134.7471","MEAN_MOTION":"15.08836228","OBJECT_NAME":"STARLINK-3279","GP_ID":"207852515","MEAN_ANOMALY":"309.2646","MEAN_ELEMENT_THEORY":"SGP4","COUNTRY_CODE":"US","INCLINATION":"53.2168","TIME_SYSTEM":"UTC","FILE":"3511300","REV_AT_EPOCH":"3416","TLE_LINE2":"2 50185  53.2168 134.7471 0003197  50.8630 309.2646 15.08836228 34162","OBJECT_TYPE":"PAYLOAD","OBJECT_ID":"2021-125AF","LAUNCH_DATE":"2021-12-18","RCS_SIZE":"LARGE","REF_FRAME":"TEME","SEMIMAJOR_AXIS":"6917.892","PERIOD":"95.438","CENTER_NAME":"EARTH","ELEMENT_SET_NO":"999","EPOCH":"2022-07-10T21:19:51.900960","CLASSIFICATION_TYPE":"U","BSTAR":"0.00011533000000","EPHEMERIS_TYPE":"0","ARG_OF_PERICENTER":"50.8630","SITE":"AFWTR","MEAN_MOTION_DDOT":"0.0000000000000","DECAY_DATE":null,"TLE_LINE1":"1 50185U 21125AF  22191.88879515  .00001547  00000-0  11533-3 0  9999","NORAD_CAT_ID":"50185","PERIAPSIS":"537.545","ECCENTRICITY":"0.00031970","MEAN_MOTION_DOT":"0.00001547","APOAPSIS":"541.969"},{"SITE":"AFWTR","MEAN_MOTION_DDOT":"0.0000000000000","DECAY_DATE":null,"TLE_LINE1":"1 50186U 21125AG  22191.57141234 -.00003034  00000-0 -17262-3 0  9996","NORAD_CAT_ID":"50186","EPOCH":"2022-07-10T13:42:50.026176","BSTAR":"-0.00017262000000","CLASSIFICATION_TYPE":"U","ARG_OF_PERICENTER":"50.6477","EPHEMERIS_TYPE":"0","MEAN_MOTION_DOT":"-0.00003034","APOAPSIS":"542.417","PERIAPSIS":"537.204","ECCENTRICITY":"0.00037680","OBJECT_NAME":"STARLINK-3274","GP_ID":"207877053","MEAN_ANOMALY":"309.4848","MEAN_ELEMENT_THEORY":"SGP4","RA_OF_ASC_NODE":"146.1598","MEAN_MOTION":"15.08818672","OBJECT_ID":"2021-125AG","OBJECT_TYPE":"PAYLOAD","RCS_SIZE":"LARGE","LAUNCH_DATE":"2021-12-18","REF_FRAME":"TEME","PERIOD":"95.439","SEMIMAJOR_AXIS":"6917.946","CENTER_NAME":"EARTH","ELEMENT_SET_NO":"999","INCLINATION":"53.2176","COUNTRY_CODE":"US","TIME_SYSTEM":"UTC","FILE":"3511318","REV_AT_EPOCH":"3444","TLE_LINE2":"2 50186  53.2176 146.1598 0003768  50.6477 309.4848 15.08818672 34440"},{"EPOCH":"2022-07-10T20:44:06.587232","BSTAR":"-0.00014771000000","CLASSIFICATION_TYPE":"U","EPHEMERIS_TYPE":"0","ARG_OF_PERICENTER":"56.2569","MEAN_MOTION_DDOT":"0.0000000000000","SITE":"AFWTR","DECAY_DATE":null,"TLE_LINE1":"1 50187U 21125AH  22191.86396513 -.00002638  00000-0 -14771-3 0  9992","NORAD_CAT_ID":"50187","PERIAPSIS":"538.108","ECCENTRICITY":"0.00024170","MEAN_MOTION_DOT":"-0.00002638","APOAPSIS":"541.452","RA_OF_ASC_NODE":"124.8513","MEAN_MOTION":"15.08828761","OBJECT_NAME":"STARLINK-3272","GP_ID":"207852150","MEAN_ELEMENT_THEORY":"SGP4","MEAN_ANOMALY":"303.8653","COUNTRY_CODE":"US","INCLINATION":"53.2158","TIME_SYSTEM":"UTC","FILE":"3511300","REV_AT_EPOCH":"3167","TLE_LINE2":"2 50187  53.2158 124.8513 0002417  56.2569 303.8653 15.08828761 31679","OBJECT_TYPE":"PAYLOAD","OBJECT_ID":"2021-125AH","LAUNCH_DATE":"2021-12-18","RCS_SIZE":"LARGE","REF_FRAME":"TEME","PERIOD":"95.438","CENTER_NAME":"EARTH","SEMIMAJOR_AXIS":"6917.915","ELEMENT_SET_NO":"999"},{"MEAN_MOTION_DOT":"-0.00003300","APOAPSIS":"541.489","PERIAPSIS":"538.098","ECCENTRICITY":"0.00024510","MEAN_MOTION_DDOT":"0.0000000000000","SITE":"AFWTR","DECAY_DATE":null,"NORAD_CAT_ID":"50188","TLE_LINE1":"1 50188U 21125AJ  22191.80140773 -.00003300  00000-0 -18937-3 0  9997","EPOCH":"2022-07-10T19:14:01.627872","BSTAR":"-0.00018937000000","CLASSIFICATION_TYPE":"U","EPHEMERIS_TYPE":"0","ARG_OF_PERICENTER":"63.6114","OBJECT_ID":"2021-125AJ","OBJECT_TYPE":"PAYLOAD","RCS_SIZE":"LARGE","LAUNCH_DATE":"2021-12-18","REF_FRAME":"TEME","ELEMENT_SET_NO":"999","PERIOD":"95.439","CENTER_NAME":"EARTH","SEMIMAJOR_AXIS":"6917.929","TIME_SYSTEM":"UTC","COUNTRY_CODE":"US","INCLINATION":"53.2170","REV_AT_EPOCH":"3480","FILE":"3511318","TLE_LINE2":"2 50188  53.2170 125.1263 0002451  63.6114 296.5130 15.08824158 34808","OBJECT_NAME":"STARLINK-3275","GP_ID":"207876057","MEAN_ANOMALY":"296.5130","MEAN_ELEMENT_THEORY":"SGP4","MEAN_MOTION":"15.08824158","RA_OF_ASC_NODE":"125.1263"},{"INCLINATION":"53.2176","COUNTRY_CODE":"US","TIME_SYSTEM":"UTC","TLE_LINE2":"2 50189  53.2176 134.8251 0002141  56.9569 303.1629 15.08822691 34150","FILE":"3511300","REV_AT_EPOCH":"3415","RCS_SIZE":"LARGE","LAUNCH_DATE":"2021-12-18","OBJECT_ID":"2021-125AK","OBJECT_TYPE":"PAYLOAD","PERIOD":"95.439","CENTER_NAME":"EARTH","SEMIMAJOR_AXIS":"6917.933","ELEMENT_SET_NO":"999","REF_FRAME":"TEME","RA_OF_ASC_NODE":"134.8251","MEAN_MOTION":"15.08822691","GP_ID":"207852137","OBJECT_NAME":"STARLINK-3276","MEAN_ELEMENT_THEORY":"SGP4","MEAN_ANOMALY":"303.1629","ECCENTRICITY":"0.00021410","PERIAPSIS":"538.317","MEAN_MOTION_DOT":"-0.00002831","APOAPSIS":"541.279","EPOCH":"2022-07-10T20:53:23.041248","ARG_OF_PERICENTER":"56.9569","EPHEMERIS_TYPE":"0","BSTAR":"-0.00015988000000","CLASSIFICATION_TYPE":"U","MEAN_MOTION_DDOT":"0.0000000000000","SITE":"AFWTR","TLE_LINE1":"1 50189U 21125AK  22191.87040557 -.00002831  00000-0 -15988-3 0  9995","NORAD_CAT_ID":"50189","DECAY_DATE":null},{"INCLINATION":"53.2173","COUNTRY_CODE":"US","TIME_SYSTEM":"UTC","FILE":"3511318","REV_AT_EPOCH":"3475","TLE_LINE2":"2 50190  53.2173 125.1946 0002729  55.8494 304.2757 15.08821527 34757","OBJECT_ID":"2021-125AL","OBJECT_TYPE":"PAYLOAD","RCS_SIZE":"LARGE","LAUNCH_DATE":"2021-12-18","REF_FRAME":"TEME","PERIOD":"95.439","SEMIMAJOR_AXIS":"6917.937","CENTER_NAME":"EARTH","ELEMENT_SET_NO":"999","RA_OF_ASC_NODE":"125.1946","MEAN_MOTION":"15.08821527","OBJECT_NAME":"STARLINK-3268","GP_ID":"207876553","MEAN_ELEMENT_THEORY":"SGP4","MEAN_ANOMALY":"304.2757","PERIAPSIS":"537.914","ECCENTRICITY":"0.00027290","MEAN_MOTION_DOT":"-0.00003439","APOAPSIS":"541.690","EPOCH":"2022-07-10T18:52:48.988704","BSTAR":"-0.00019815000000","CLASSIFICATION_TYPE":"U","ARG_OF_PERICENTER":"55.8494","EPHEMERIS_TYPE":"0","MEAN_MOTION_DDOT":"0.0000000000000","SITE":"AFWTR","DECAY_DATE":null,"TLE_LINE1":"1 50190U 21125AL  22191.78667811 -.00003439  00000-0 -19815-3 0  9993","NORAD_CAT_ID":"50190"},{"MEAN_MOTION":"15.08829577","RA_OF_ASC_NODE":"144.8687","MEAN_ELEMENT_THEORY":"SGP4","MEAN_ANOMALY":"308.5599","OBJECT_NAME":"STARLINK-3273","GP_ID":"207852525","REV_AT_EPOCH":"3140","FILE":"3511300","TLE_LINE2":"2 50191  53.2138 144.8687 0003348  51.5693 308.5599 15.08829577 31404","TIME_SYSTEM":"UTC","INCLINATION":"53.2138","COUNTRY_CODE":"US","REF_FRAME":"TEME","ELEMENT_SET_NO":"999","PERIOD":"95.438","SEMIMAJOR_AXIS":"6917.912","CENTER_NAME":"EARTH","OBJECT_TYPE":"PAYLOAD","OBJECT_ID":"2021-125AM","RCS_SIZE":"LARGE","LAUNCH_DATE":"2021-12-18","BSTAR":"-0.00005085300000","CLASSIFICATION_TYPE":"U","EPHEMERIS_TYPE":"0","ARG_OF_PERICENTER":"51.5693","EPOCH":"2022-07-10T20:41:26.926944","DECAY_DATE":null,"NORAD_CAT_ID":"50191","TLE_LINE1":"1 50191U 21125AM  22191.86211721 -.00001098  00000-0 -50853-4 0  9995","MEAN_MOTION_DDOT":"0.0000000000000","SITE":"AFWTR","PERIAPSIS":"537.461","ECCENTRICITY":"0.00033480","APOAPSIS":"542.093","MEAN_MOTION_DOT":"-0.00001098"},{"NORAD_CAT_ID":"50192","TLE_LINE1":"1 50192U 21125AN  22191.51804690 -.00003917  00000-0 -22822-3 0  9997","DECAY_DATE":null,"MEAN_MOTION_DDOT":"0.0000000000000","SITE":"AFWTR","EPHEMERIS_TYPE":"0","ARG_OF_PERICENTER":"54.8254","BSTAR":"-0.00022822000000","CLASSIFICATION_TYPE":"U","EPOCH":"2022-07-10T12:25:59.252160","APOAPSIS":"541.315","MEAN_MOTION_DOT":"-0.00003917","ECCENTRICITY":"0.00021760","PERIAPSIS":"538.304","MEAN_ELEMENT_THEORY":"SGP4","MEAN_ANOMALY":"305.2942","GP_ID":"207875557","OBJECT_NAME":"STARLINK-3259","MEAN_MOTION":"15.08819094","RA_OF_ASC_NODE":"126.4066","ELEMENT_SET_NO":"999","SEMIMAJOR_AXIS":"6917.944","PERIOD":"95.439","CENTER_NAME":"EARTH","REF_FRAME":"TEME","RCS_SIZE":"LARGE","LAUNCH_DATE":"2021-12-18","OBJECT_TYPE":"PAYLOAD","OBJECT_ID":"2021-125AN","TLE_LINE2":"2 50192  53.2171 126.4066 0002176  54.8254 305.2942 15.08819094 34712","REV_AT_EPOCH":"3471","FILE":"3511318","TIME_SYSTEM":"UTC","INCLINATION":"53.2171","COUNTRY_CODE":"US"}];
